IRIDIUM 113
1 42803U 17039A   19302.45878296  .00000075  00000-0  19681-4 0  9992
2 42803  86.3972 254.4203 0002422  74.9818 285.1646 14.34219502123932
IRIDIUM 111
1 41926U 17003K   19302.61836480  .00000105  00000-0  30503-4 0  9995
2 41926  86.4016  20.7372 0002358  87.2194 272.9271 14.34216843146095
IRIDIUM 112
1 41925U 17003J   19302.63103455  .00000091  00000-0  25333-4 0  9994
2 41925  86.4015  20.7138 0002285 107.1503 252.9943 14.34220096146075
IRIDIUM 108
1 41924U 17003H   19302.60224621  .00000093  00000-0  26148-4 0  9996
2 41924  86.3984 349.2005 0001803  92.1773 267.9629 14.34215795147895
IRIDIUM 114
1 41923U 17003G   19302.36463416  .00000096  00000-0  27055-4 0  9996
2 41923  86.4019  20.8682 0001964 102.2705 257.8711 14.34214293146007
IRIDIUM 104
1 41922U 17003F   19302.63739055  .00000104  00000-0  30093-4 0  9996
2 41922  86.4019  20.7640 0001956  85.2736 274.8683 14.34218257146049
IRIDIUM 105
1 41921U 17003E   19302.59579884  .00000100  00000-0  28788-4 0  9996
2 41921  86.3990 349.1664 0001626  58.7533 301.3821 14.34215766147901
IRIDIUM 102
1 41920U 17003D   19302.62469422  .00000098  00000-0  27871-4 0  9993
2 41920  86.4017  20.7636 0002418  96.5655 263.5817 14.34219155146052
IRIDIUM 109
1 41919U 17003C   19302.58665975  .00000093  00000-0  26046-4 0  9995
2 41919  86.4019  20.8039 0002225  92.3016 267.8434 14.34218784145981
IRIDIUM 103
1 41918U 17003B   19302.58030275  .00000094  00000-0  26517-4 0  9997
2 41918  86.4018  20.7873 0002486  86.3660 273.7820 14.34216199146008
IRIDIUM 106
1 41917U 17003A   19302.59298492  .00000101  00000-0  29182-4 0  9994
2 41917  86.4018  20.8739 0001782  87.2717 272.8682 14.34216398145972
IRIDIUM 97
1 27450U 02031A   19302.57279480  .00000017  00000-0 -86417-6 0  9992
2 27450  86.4193 317.6963 0002115  95.8287 264.3152 14.38539422914383
IRIDIUM 96
1 27376U 02005E   19302.47172836  .00059346 -47324-6  33738-3 0  9996
2 27376  86.3625 265.5213 0169640  81.4417 280.6029 15.61111850946995
IRIDIUM 2
1 25527U 98066A   19302.43017108  .00001294  00000-0  61315-4 0  9995
2 25527  85.5312 241.3244 0010184 137.3116 222.8918 15.18239512148937
IRIDIUM 82
1 25467U 98051A   19302.62223073  .00000920  00000-0  66290-4 0  9995
2 25467  86.4010 345.8471 0179438 186.9087 172.9667 14.90544334115550
IRIDIUM 73
1 25344U 98032C   19302.25188321  .00000128  00000-0  28334-4 0  9990
2 25344  86.4484 197.7268 0002692  78.9793 281.1714 14.49197023132680
IRIDIUM 71
1 25320U 98026B   19302.35056811  .00000098  00000-0  25157-4 0  9992
2 25320  86.4001 237.5879 0003672  54.5796 305.5745 14.39215666127752
IRIDIUM 69
1 25319U 98026A   19302.39696111  .00000036  00000-0  51874-5 0  9995
2 25319  86.4010 242.0920 0001797  24.8861 335.2424 14.38811875127293
IRIDIUM 63
1 25286U 98021B   19302.43296487  .00000105  00000-0  29944-4 0  9999
2 25286  86.4038 223.0230 0002250  89.2202  48.2589 14.34793328128964
IRIDIUM 57
1 25273U 98019B   19302.52952770  .00000075  00000-0  19787-4 0  9996
2 25273  86.3920 286.0024 0002242  91.2723 268.8730 14.34358727129960
IRIDIUM 51
1 25262U 98018A   19302.48266043  .00000756  00000-0  50814-4 0  9991
2 25262  86.3946 290.8873 0207482 141.5612 220.0608 14.88705297138882
IRIDIUM 24
1 25105U 97082B   19302.31214134  .00000100  00000-0  25260-4 0  9993
2 25105  86.3953 230.4205 0012613  28.9964 331.1933 14.39995768147204
IRIDIUM 45
1 25104U 97082A   19302.50382315  .00000587  00000-0  42965-4 0  9990
2 25104  86.3776 278.1920 0216025 144.2554 217.3356 14.84083347145280
IRIDIUM 44
1 25078U 97077B   19302.61931792  .00000119  00000-0  32541-4 0  9995
2 25078  86.4000   7.8430 0001205  33.3236 326.8038 14.38271542147876
IRIDIUM 42
1 25077U 97077A   19302.64029887  .00000071  00000-0  18230-4 0  9996
2 25077  86.4014  20.4576 0002138  79.7032 280.4405 14.34568900146118
IRIDIUM 38
1 25043U 97069E   19302.63330684  .00000142  00000-0  42000-4 0  9990
2 25043  86.4008  16.7241 0002115  55.3882 304.7515 14.36166619150793
IRIDIUM 39
1 25042U 97069D   19302.59382617  .00000105  00000-0  23547-4 0  9991
2 25042  86.3963  10.4012 0017503 323.6508  36.3505 14.46338404151658
IRIDIUM 36
1 24967U 97056C   19302.59312016  .00000093  00000-0  25297-4 0  9998
2 24967  86.3936 315.7047 0002043  96.2911 263.8519 14.35739653156887
IRIDIUM 28
1 24948U 97051E   19302.55203185  .00000080  00000-0  20782-4 0  9994
2 24948  86.3922 284.0260 0002078  80.5160 279.6272 14.35677838158593
IRIDIUM 33
1 24946U 97051C   19302.49116529  .00000079  00000-0  21371-4 0  9993
2 24946  86.3832 284.9541 0006320 319.6736  40.3990 14.33662320157868
IRIDIUM 29
1 24944U 97051A   19302.55178032  .00000064  00000-0  15555-4 0  9996
2 24944  86.3917 285.3132 0002300  95.5123 264.6335 14.34726483158367
DUMMY MASS 2
1 24926U 97048B   19301.78627621  .00000090  00000-0  73144-5 0  9997
2 24926  86.3385   6.4880 0005945 225.8821 134.1915 14.84979806199587
DUMMY MASS 1
1 24925U 97048A   19302.28661458  .00000084  00000-0  65864-5 0  9991
2 24925  86.3384   4.9999 0005522 210.2399 149.8507 14.85212440199831
IRIDIUM 22
1 24907U 97043E   19302.38844691  .00000087  00000-0  23805-4 0  9990
2 24907  86.3963 254.8677 0002267  88.3713 271.7742 14.34315390161703
IRIDIUM 26
1 24903U 97043A   19302.48382078  .00000096  00000-0  26514-4 0  9993
2 24903  86.3963 252.8801 0002244  81.4062 278.7389 14.35375404161945
IRIDIUM 921
1 24873U 97034E   19302.64030486  .00000679  00000-0  36868-4 0  9990
2 24873  86.3964  16.9601 0009863  73.3703 286.8618 15.12543049218716
IRIDIUM 920
1 24871U 97034C   19302.59721915  .00000126  00000-0  33928-4 0  9997
2 24871  86.4007   2.0716 0012475  26.7953 333.3888 14.39610637170707
IRIDIUM 17
1 24870U 97034B   19302.60465877  .00000129  00000-0  37546-4 0  9993
2 24870  86.4009  17.9443 0000492 118.4468 241.6778 14.35901324168210
IRIDIUM 911
1 24842U 97030G   19302.57708432  .00000141  00000-0  34322-4 0  9994
2 24842  86.4478 348.2623 0016674  99.5679 260.7408 14.45124644177777
IRIDIUM 16
1 24841U 97030F   19302.61798483  .00000098  00000-0  26383-4 0  9992
2 24841  86.4051 347.9753 0002417  29.9862 330.1473 14.36850603171706
IRIDIUM 914
1 24836U 97030A   19302.63606267  .00000112  00000-0  29869-4 0  9995
2 24836  86.3921 330.3517 0003491 118.6289 241.5260 14.38895925173249
IRIDIUM 4
1 24796U 97020E   19302.60155110  .00000097  00000-0  26888-4 0  9992
2 24796  86.3921 315.9394 0002254  91.0631 269.0823 14.35221784177288
IRIDIUM 5
1 24795U 97020D   19302.55534097  .00000303  00000-0  30336-4 0  9993
2 24795  86.3927 294.9967 0138111 202.0641 157.4602 14.80157217180415
IRIDIUM 7
1 24793U 97020B   19302.56774609  .00000097  00000-0  27438-4 0  9996
2 24793  86.3930 317.6978 0002286  87.6760 272.4697 14.34297866177090
